SINOD-D 3               
1 40977U 15058P   26068.81223977  .00006149  00000+0  52531-3 0  9995
2 40977  64.7724 225.9436 0118521  98.0775 263.3804 14.93212807 99915
STARLINK-4269           
1 52992U 22076G   26068.40606894 -.00000442  00000+0 -96724-5 0  9997
2 52992  53.2169 105.4028 0001379  82.6987 277.4162 15.08833761202662
