[{"OBJECT_NAME":"SINOD-D 3","OBJECT_ID":"2015-058P","EPOCH":"2026-03-09T19:29:37.516128","MEAN_MOTION":14.93212807,"ECCENTRICITY":0.01185207,"INCLINATION":64.7724,"RA_OF_ASC_NODE":225.9436,"ARG_OF_PERICENTER":98.0775,"MEAN_ANOMALY":263.3804,"EPHEMERIS_TYPE":0,"CLASSIFICATION_TYPE":"U","NORAD_CAT_ID":40977,"ELEMENT_SET_NO":999,"REV_AT_EPOCH":9991,"BSTAR":0.0005253062,"MEAN_MOTION_DOT":6.149e-5,"MEAN_MOTION_DDOT":0},{"OBJECT_NAME":"STARLINK-4269","OBJECT_ID":"2022-076G","EPOCH":"2026-03-09T09:44:44.356416","MEAN_MOTION":15.08833761,"ECCENTRICITY":0.00013797,"INCLINATION":53.2169,"RA_OF_ASC_NODE":105.4028,"ARG_OF_PERICENTER":82.6987,"MEAN_ANOMALY":277.4162,"EPHEMERIS_TYPE":0,"CLASSIFICATION_TYPE":"U","NORAD_CAT_ID":52992,"ELEMENT_SET_NO":999,"REV_AT_EPOCH":20266,"BSTAR":-9.672399e-6,"MEAN_MOTION_DOT":-4.42e-6,"MEAN_MOTION_DDOT":0}]
